[{"OBJECT_NAME":"GEOSCAN 4 (RS92S4)","OBJECT_ID":"2025-155S","EPOCH":"2026-03-09T21:50:07.724832","MEAN_MOTION":15.30369837,"ECCENTRICITY":0.00070968,"INCLINATION":97.4465,"RA_OF_ASC_NODE":37.7626,"ARG_OF_PERICENTER":154.7045,"MEAN_ANOMALY":205.4544,"EPHEMERIS_TYPE":0,"CLASSIFICATION_TYPE":"U","NORAD_CAT_ID":64892,"ELEMENT_SET_NO":999,"REV_AT_EPOCH":6562,"BSTAR":0.00068609503,"MEAN_MOTION_DOT":0.00020121,"MEAN_MOTION_DDOT":0},{"OBJECT_NAME":"STARLINK-36422","OBJECT_ID":"2026-003L","EPOCH":"2026-03-09T11:16:21.310176","MEAN_MOTION":15.27586691,"ECCENTRICITY":0.000164,"INCLINATION":43.0012,"RA_OF_ASC_NODE":228.0069,"ARG_OF_PERICENTER":256.6879,"MEAN_ANOMALY":103.379,"EPHEMERIS_TYPE":0,"CLASSIFICATION_TYPE":"U","NORAD_CAT_ID":67344,"ELEMENT_SET_NO":999,"REV_AT_EPOCH":879,"BSTAR":0.0011655825,"MEAN_MOTION_DOT":0.00031958,"MEAN_MOTION_DDOT":0}]
